start=new Date('2021-08-22T00:00:00.000Z').valueOf();
sats=[{"REV_AT_EPOCH":"2633","LAUNCH_DATE":"2021-03-11","COUNTRY_CODE":"US","ARG_OF_PERICENTER":"57.0921","ELEMENT_SET_NO":"999","EPHEMERIS_TYPE":"0","CLASSIFICATION_TYPE":"U","RCS_SIZE":"LARGE","OBJECT_ID":"2021-018AD","MEAN_MOTION_DDOT":"0.0000000000000","GP_ID":"183214194","TLE_LINE2":"2 47814  53.0599 147.2314 0001457  57.0921 303.0208 15.06395730 26339","MEAN_MOTION_DOT":"-0.00000359","SEMIMAJOR_AXIS":"6925.362","APOAPSIS":"548.236","PERIAPSIS":"546.218","PERIOD":"95.592","RA_OF_ASC_NODE":"147.2314","MEAN_ELEMENT_THEORY":"SGP4","DECAY_DATE":null,"FILE":"3101032","REF_FRAME":"TEME","EPOCH":"2021-08-21T21:21:59.975136","TLE_LINE1":"1 47814U 21018AD  21233.89027749 -.00000359  00000-0 -51864-5 0  9991","MEAN_MOTION":"15.06395730","OBJECT_NAME":"STARLINK-2395","CENTER_NAME":"EARTH","OBJECT_TYPE":"PAYLOAD","ECCENTRICITY":"0.00014570","NORAD_CAT_ID":"47814","BSTAR":"-0.00000518640000","SITE":"AFETR","MEAN_ANOMALY":"303.0208","INCLINATION":"53.0599","TIME_SYSTEM":"UTC"},{"MEAN_ELEMENT_THEORY":"SGP4","RA_OF_ASC_NODE":"142.3873","PERIOD":"95.593","PERIAPSIS":"545.954","REF_FRAME":"TEME","DECAY_DATE":null,"FILE":"3101032","EPOCH":"2021-08-21T20:32:14.545824","TLE_LINE1":"1 47815U 21018AE  21233.85572391  .00000778  00000-0  71177-4 0  9997","MEAN_MOTION":"15.06387163","OBJECT_NAME":"STARLINK-2396","CENTER_NAME":"EARTH","ECCENTRICITY":"0.00018760","OBJECT_TYPE":"PAYLOAD","NORAD_CAT_ID":"47815","SITE":"AFETR","MEAN_ANOMALY":"307.0805","BSTAR":"0.00007117700000","TIME_SYSTEM":"UTC","INCLINATION":"53.0558","REV_AT_EPOCH":"2633","ARG_OF_PERICENTER":"53.0356","COUNTRY_CODE":"US","LAUNCH_DATE":"2021-03-11","ELEMENT_SET_NO":"999","CLASSIFICATION_TYPE":"U","EPHEMERIS_TYPE":"0","MEAN_MOTION_DDOT":"0.0000000000000","OBJECT_ID":"2021-018AE","RCS_SIZE":"LARGE","TLE_LINE2":"2 47815  53.0558 142.3873 0001876  53.0356 307.0805 15.06387163 26332","GP_ID":"183214444","APOAPSIS":"548.552","SEMIMAJOR_AXIS":"6925.388","MEAN_MOTION_DOT":"0.00000778"},{"MEAN_ANOMALY":"303.0433","SITE":"AFETR","BSTAR":"0.00007225100000","TIME_SYSTEM":"UTC","INCLINATION":"53.0555","ECCENTRICITY":"0.00018840","OBJECT_TYPE":"PAYLOAD","NORAD_CAT_ID":"47816","MEAN_MOTION":"15.06390243","TLE_LINE1":"1 47816U 21018AF  21233.79812872  .00000794  00000-0  72251-4 0  9994","EPOCH":"2021-08-21T19:09:18.321408","OBJECT_NAME":"STARLINK-2399","CENTER_NAME":"EARTH","MEAN_ELEMENT_THEORY":"SGP4","RA_OF_ASC_NODE":"147.6418","PERIOD":"95.593","PERIAPSIS":"545.939","REF_FRAME":"TEME","DECAY_DATE":null,"FILE":"3101032","TLE_LINE2":"2 47816  53.0555 147.6418 0001884  57.0737 303.0433 15.06390243 26256","GP_ID":"183215182","APOAPSIS":"548.548","SEMIMAJOR_AXIS":"6925.378","MEAN_MOTION_DOT":"0.00000794","CLASSIFICATION_TYPE":"U","EPHEMERIS_TYPE":"0","MEAN_MOTION_DDOT":"0.0000000000000","OBJECT_ID":"2021-018AF","RCS_SIZE":"LARGE","ARG_OF_PERICENTER":"57.0737","COUNTRY_CODE":"US","LAUNCH_DATE":"2021-03-11","ELEMENT_SET_NO":"999","REV_AT_EPOCH":"2625"},{"GP_ID":"183213446","TLE_LINE2":"2 47817  53.0543 147.8587 0002052  55.1855 304.9327 15.06404100 26240","MEAN_MOTION_DOT":"-0.00002816","SEMIMAJOR_AXIS":"6925.336","APOAPSIS":"548.622","EPHEMERIS_TYPE":"0","CLASSIFICATION_TYPE":"U","RCS_SIZE":"LARGE","OBJECT_ID":"2021-018AG","MEAN_MOTION_DDOT":"0.0000000000000","LAUNCH_DATE":"2021-03-11","COUNTRY_CODE":"US","ARG_OF_PERICENTER":"55.1855","ELEMENT_SET_NO":"999","REV_AT_EPOCH":"2624","BSTAR":"-0.00017019000000","MEAN_ANOMALY":"304.9327","SITE":"AFETR","INCLINATION":"53.0543","TIME_SYSTEM":"UTC","OBJECT_TYPE":"PAYLOAD","ECCENTRICITY":"0.00020520","NORAD_CAT_ID":"47817","TLE_LINE1":"1 47817U 21018AG  21233.75021200 -.00002816  00000-0 -17019-3 0  9997","OBJECT_NAME":"STARLINK-2400","MEAN_MOTION":"15.06404100","EPOCH":"2021-08-21T18:00:18.316800","CENTER_NAME":"EARTH","PERIAPSIS":"545.780","PERIOD":"95.592","RA_OF_ASC_NODE":"147.8587","MEAN_ELEMENT_THEORY":"SGP4","DECAY_DATE":null,"FILE":"3101032","REF_FRAME":"TEME"},{"RCS_SIZE":"LARGE","MEAN_MOTION_DDOT":"0.0000000000000","OBJECT_ID":"2021-018AH","CLASSIFICATION_TYPE":"U","EPHEMERIS_TYPE":"0","SEMIMAJOR_AXIS":"6925.369","MEAN_MOTION_DOT":"-0.00000895","APOAPSIS":"548.485","GP_ID":"183185566","TLE_LINE2":"2 47818  53.0551 153.9278 0001807  58.2710 301.8455 15.06393332 26147","REV_AT_EPOCH":"2614","ELEMENT_SET_NO":"999","COUNTRY_CODE":"US","LAUNCH_DATE":"2021-03-11","ARG_OF_PERICENTER":"58.2710","NORAD_CAT_ID":"47818","OBJECT_TYPE":"PAYLOAD","ECCENTRICITY":"0.00018070","TIME_SYSTEM":"UTC","INCLINATION":"53.0551","SITE":"AFETR","MEAN_ANOMALY":"301.8455","BSTAR":"-0.00004120000000","FILE":"3100831","DECAY_DATE":null,"REF_FRAME":"TEME","PERIOD":"95.593","PERIAPSIS":"545.983","MEAN_ELEMENT_THEORY":"SGP4","RA_OF_ASC_NODE":"153.9278","CENTER_NAME":"EARTH","TLE_LINE1":"1 47818U 21018AH  21233.51200428 -.00000895  00000-0 -41200-4 0  9998","MEAN_MOTION":"15.06393332","OBJECT_NAME":"STARLINK-2401","EPOCH":"2021-08-21T12:17:17.169792"},{"CENTER_NAME":"EARTH","OBJECT_NAME":"STARLINK-2402","TLE_LINE1":"1 47819U 21018AJ  21234.08563218 -.00000617  00000-0 -22489-4 0  9991","MEAN_MOTION":"15.06393990","EPOCH":"2021-08-22T02:03:18.620352","FILE":"3101139","DECAY_DATE":null,"REF_FRAME":"TEME","PERIOD":"95.593","PERIAPSIS":"545.948","MEAN_ELEMENT_THEORY":"SGP4","RA_OF_ASC_NODE":"146.3460","TIME_SYSTEM":"UTC","INCLINATION":"53.0609","SITE":"AFETR","MEAN_ANOMALY":"294.6683","BSTAR":"-0.00002248900000","NORAD_CAT_ID":"47819","OBJECT_TYPE":"PAYLOAD","ECCENTRICITY":"0.00018540","ELEMENT_SET_NO":"999","COUNTRY_CODE":"US","LAUNCH_DATE":"2021-03-11","ARG_OF_PERICENTER":"65.4500","REV_AT_EPOCH":"2597","SEMIMAJOR_AXIS":"6925.367","MEAN_MOTION_DOT":"-0.00000617","APOAPSIS":"548.516","GP_ID":"183218494","TLE_LINE2":"2 47819  53.0609 146.3460 0001854  65.4500 294.6683 15.06393990 25972","RCS_SIZE":"LARGE","MEAN_MOTION_DDOT":"0.0000000000000","OBJECT_ID":"2021-018AJ","CLASSIFICATION_TYPE":"U","EPHEMERIS_TYPE":"0"},{"OBJECT_TYPE":"PAYLOAD","ECCENTRICITY":"0.00017310","NORAD_CAT_ID":"47820","BSTAR":"0.00001108300000","SITE":"AFETR","MEAN_ANOMALY":"300.3265","INCLINATION":"53.0555","TIME_SYSTEM":"UTC","PERIAPSIS":"546.028","PERIOD":"95.592","RA_OF_ASC_NODE":"157.3352","MEAN_ELEMENT_THEORY":"SGP4","FILE":"3101032","DECAY_DATE":null,"REF_FRAME":"TEME","MEAN_MOTION":"15.06395786","TLE_LINE1":"1 47820U 21018AK  21233.86723515 -.00000117  00000-0  11083-4 0  9998","EPOCH":"2021-08-21T20:48:49.116960","OBJECT_NAME":"STARLINK-2403","CENTER_NAME":"EARTH","EPHEMERIS_TYPE":"0","CLASSIFICATION_TYPE":"U","RCS_SIZE":"LARGE","OBJECT_ID":"2021-018AK","MEAN_MOTION_DDOT":"0.0000000000000","GP_ID":"183214682","TLE_LINE2":"2 47820  53.0555 157.3352 0001731  59.7895 300.3265 15.06395786 26183","MEAN_MOTION_DOT":"-0.00000117","SEMIMAJOR_AXIS":"6925.361","APOAPSIS":"548.425","REV_AT_EPOCH":"2618","LAUNCH_DATE":"2021-03-11","COUNTRY_CODE":"US","ARG_OF_PERICENTER":"59.7895","ELEMENT_SET_NO":"999"},{"CLASSIFICATION_TYPE":"U","EPHEMERIS_TYPE":"0","RCS_SIZE":"LARGE","MEAN_MOTION_DDOT":"0.0000000000000","OBJECT_ID":"2021-018AL","GP_ID":"183218491","TLE_LINE2":"2 47821  53.0558 146.5430 0002140  55.4484 304.6706 15.06402757 25965","SEMIMAJOR_AXIS":"6925.340","MEAN_MOTION_DOT":"0.00001050","APOAPSIS":"548.687","REV_AT_EPOCH":"2596","COUNTRY_CODE":"US","LAUNCH_DATE":"2021-03-11","ARG_OF_PERICENTER":"55.4484","ELEMENT_SET_NO":"999","OBJECT_TYPE":"PAYLOAD","ECCENTRICITY":"0.00021400","NORAD_CAT_ID":"47821","SITE":"AFETR","MEAN_ANOMALY":"304.6706","BSTAR":"0.00008940100000","TIME_SYSTEM":"UTC","INCLINATION":"53.0558","PERIOD":"95.592","PERIAPSIS":"545.723","MEAN_ELEMENT_THEORY":"SGP4","RA_OF_ASC_NODE":"146.5430","DECAY_DATE":null,"FILE":"3101139","REF_FRAME":"TEME","TLE_LINE1":"1 47821U 21018AL  21234.04413794  .00001050  00000-0  89401-4 0  9990","MEAN_MOTION":"15.06402757","OBJECT_NAME":"STARLINK-2406","EPOCH":"2021-08-22T01:03:33.518016","CENTER_NAME":"EARTH"},{"NORAD_CAT_ID":"47822","ECCENTRICITY":"0.00017330","OBJECT_TYPE":"PAYLOAD","INCLINATION":"53.0549","TIME_SYSTEM":"UTC","BSTAR":"0.00006920200000","SITE":"AFETR","MEAN_ANOMALY":"298.0384","REF_FRAME":"TEME","DECAY_DATE":null,"FILE":"3101032","RA_OF_ASC_NODE":"157.6766","MEAN_ELEMENT_THEORY":"SGP4","PERIAPSIS":"546.028","PERIOD":"95.592","CENTER_NAME":"EARTH","EPOCH":"2021-08-21T18:57:21.557376","TLE_LINE1":"1 47822U 21018AM  21233.78983284  .00000749  00000-0  69202-4 0  9998","MEAN_MOTION":"15.06395107","OBJECT_NAME":"STARLINK-2407","OBJECT_ID":"2021-018AM","MEAN_MOTION_DDOT":"0.0000000000000","RCS_SIZE":"LARGE","EPHEMERIS_TYPE":"0","CLASSIFICATION_TYPE":"U","APOAPSIS":"548.429","MEAN_MOTION_DOT":"0.00000749","SEMIMAJOR_AXIS":"6925.364","TLE_LINE2":"2 47822  53.0549 157.6766 0001733  62.0780 298.0384 15.06395107 26128","GP_ID":"183214195","REV_AT_EPOCH":"2612","ELEMENT_SET_NO":"999","ARG_OF_PERICENTER":"62.0780","LAUNCH_DATE":"2021-03-11","COUNTRY_CODE":"US"},{"RCS_SIZE":"LARGE","OBJECT_ID":"2021-018AN","MEAN_MOTION_DDOT":"0.0000000000000","EPHEMERIS_TYPE":"0","CLASSIFICATION_TYPE":"U","MEAN_MOTION_DOT":"0.00001066","SEMIMAJOR_AXIS":"6925.350","APOAPSIS":"548.504","GP_ID":"183218450","TLE_LINE2":"2 47823  53.0556 146.4199 0001861  57.8393 302.2776 15.06399415 25956","REV_AT_EPOCH":"2595","ELEMENT_SET_NO":"999","LAUNCH_DATE":"2021-03-11","COUNTRY_CODE":"US","ARG_OF_PERICENTER":"57.8393","NORAD_CAT_ID":"47823","OBJECT_TYPE":"PAYLOAD","ECCENTRICITY":"0.00018610","INCLINATION":"53.0556","TIME_SYSTEM":"UTC","BSTAR":"0.00009047300000","SITE":"AFETR","MEAN_ANOMALY":"302.2776","DECAY_DATE":null,"FILE":"3101140","REF_FRAME":"TEME","PERIAPSIS":"545.927","PERIOD":"95.592","RA_OF_ASC_NODE":"146.4199","MEAN_ELEMENT_THEORY":"SGP4","CENTER_NAME":"EARTH","TLE_LINE1":"1 47823U 21018AN  21234.07088217  .00001066  00000-0  90473-4 0  9991","EPOCH":"2021-08-22T01:42:04.219488","MEAN_MOTION":"15.06399415","OBJECT_NAME":"STARLINK-2408"}];
